IRIDIUM 150             
1 43257U 18030J   24121.43846160  .00000367  00000+0  12386-3 0  9993
2 43257  86.3956 255.4649 0001852  89.8033 270.3375 14.34220061318701
IRIDIUM 143             
1 43258U 18030K   24120.93105792  .00000281  00000+0  93288-4 0  9993
2 43258  86.3960 255.7390 0001773  94.3829 265.7569 14.34214001318541
IRIDIUM 161             
1 43478U 18047C   24121.20765334  .00000731  00000+0  21117-3 0  9991
2 43478  86.4509  53.5941 0002338  87.8453 272.3016 14.43281903312921
IRIDIUM 152             
1 43479U 18047D   24120.76423824  .00000033  00000+0  47115-5 0  9990
2 43479  86.3981  53.6391 0002230  84.2040 275.9410 14.34218113310916
IRIDIUM 147             
1 43480U 18047E   24121.18918216  .00000275  00000+0  91008-4 0  9990
2 43480  86.3986  53.4527 0002398  85.8783 274.2687 14.34216856310974
IRIDIUM 110             
1 43481U 18047F   24121.19553404  .00000539  00000+0  18542-3 0  9990
2 43481  86.3988  53.5217 0002704  81.1765 278.9737 14.34218462310965
IRIDIUM 162             
1 43482U 18047G   24120.85469060  .00000771  00000+0  22330-3 0  9995
2 43482  86.4508  53.6423 0002432  87.3878 272.7601 14.43284363312862
IRIDIUM 160             
1 43569U 18061A   24121.42044859  .00000432  00000+0  14720-3 0  9994
2 43569  86.4015  21.8092 0002480  91.0115 269.1365 14.34212720301895
